$$SOE
2460721.500000000, A.D. 2025-Feb-15 00:00:00.0000, -3.367732992759869E+08, 1.499238703951961E+08, -3.410086944067478E+04,
2460728.500000000, A.D. 2025-Feb-22 00:00:00.0000, -3.406720908240620E+08, 1.398916222333927E+08, -4.801846602346748E+04,
2460735.500000000, A.D. 2025-Mar-01 00:00:00.0000, -3.442397531866471E+08, 1.297234016822577E+08, -6.188955407746136E+04,
2460742.500000000, A.D. 2025-Mar-08 00:00:00.0000, -3.474717119096473E+08, 1.194286742659918E+08, -7.570073038164526E+04,
2460749.500000000, A.D. 2025-Mar-15 00:00:00.0000, -3.503635723232315E+08, 1.090170534558539E+08, -8.943853322354704E+04,
2460756.500000000, A.D. 2025-Mar-22 00:00:00.0000, -3.529111251951620E+08, 9.849830379592173E+07, -1.030891984478161E+05,
2460763.500000000, A.D. 2025-Mar-29 00:00:00.0000, -3.551103514964005E+08, 8.788234182614040E+07, -1.166387239655852E+05,
2460770.500000000, A.D. 2025-Apr-05 00:00:00.0000, -3.569574259707081E+08, 7.717923791170031E+07, -1.300730157690719E+05,
2460777.500000000, A.D. 2025-Apr-12 00:00:00.0000, -3.584487214602864E+08, 6.639921905374312E+07, -1.433779310422204E+05,
2460784.500000000, A.D. 2025-Apr-19 00:00:00.0000, -3.595808142046034E+08, 5.555267177798065E+07, -1.565392745552845E+05,
2460791.500000000, A.D. 2025-Apr-26 00:00:00.0000, -3.603504898636778E+08, 4.465014487773010E+07, -1.695427905890215E+05,
2460798.500000000, A.D. 2025-May-03 00:00:00.0000, -3.607547501690074E+08, 3.370235200505781E+07, -1.823741594324242E+05,
2460805.500000000, A.D. 2025-May-10 00:00:00.0000, -3.607908201889069E+08, 2.272017408754436E+07, -1.950190003943779E+05,
2460812.500000000, A.D. 2025-May-17 00:00:00.0000, -3.604561561874070E+08, 1.171466149420667E+07, -2.074628880696995E+05,
2460819.500000000, A.D. 2025-May-24 00:00:00.0000, -3.597484539193951E+08, 6.970358573991007E+05, -2.196914022828364E+05,
2460826.500000000, A.D. 2025-May-31 00:00:00.0000, -3.586656569608319E+08, -1.032130817997486E+07, -2.316902246095617E+05,
2460833.500000000, A.D. 2025-Jun-07 00:00:00.0000, -3.572059654907631E+08, -2.132880013221493E+07, -2.434451462236317E+05,
2460840.500000000, A.D. 2025-Jun-14 00:00:00.0000, -3.553678479058853E+08, -3.231369047005927E+07, -2.549418248548452E+05,
2460847.500000000, A.D. 2025-Jun-21 00:00:00.0000, -3.531500540702553E+08, -4.326405037580576E+07, -2.661656701973211E+05,
2460854.500000000, A.D. 2025-Jun-28 00:00:00.0000, -3.505516270889807E+08, -5.416777274285880E+07, -2.771020004191808E+05,
2460861.500000000, A.D. 2025-Jul-05 00:00:00.0000, -3.475719151307980E+08, -6.501257232031319E+07, -2.877361538559571E+05,
2460868.500000000, A.D. 2025-Jul-12 00:00:00.0000, -3.442105844964208E+08, -7.578598587403609E+07, -2.980535123719238E+05,
2460875.500000000, A.D. 2025-Jul-19 00:00:00.0000, -3.404676337520224E+08, -8.647537301124559E+07, -3.080395012078360E+05,
2460882.500000000, A.D. 2025-Jul-26 00:00:00.0000, -3.363434087252206E+08, -9.706791779933099E+07, -3.176795894181356E+05,
2460889.500000000, A.D. 2025-Aug-02 00:00:00.0000, -3.318386182996321E+08, -1.075506312353154E+08, -3.269592950441614E+05,
2460896.500000000, A.D. 2025-Aug-09 00:00:00.0000, -3.269543509803282E+08, -1.179103546642715E+08, -3.358641982317343E+05,
2460903.500000000, A.D. 2025-Aug-16 00:00:00.0000, -3.216920921437955E+08, -1.281337642992841E+08, -3.443799744126722E+05,
2460910.500000000, A.D. 2025-Aug-23 00:00:00.0000, -3.160537416645005E+08, -1.382073769211248E+08, -3.524924729180783E+05,
2460917.500000000, A.D. 2025-Aug-30 00:00:00.0000, -3.100416315665487E+08, -1.481175561431229E+08, -3.601878126568645E+05,
2460924.500000000, A.D. 2025-Sep-06 00:00:00.0000, -3.036585450868366E+08, -1.578505183455666E+08, -3.674522828624398E+05,
2460931.500000000, A.D. 2025-Sep-13 00:00:00.0000, -2.969077387801026E+08, -1.673923408739678E+08, -3.742720986517519E+05,
2460938.500000000, A.D. 2025-Sep-20 00:00:00.0000, -2.897929643462743E+08, -1.767289742633932E+08, -3.806334461911395E+05,
2460945.500000000, A.D. 2025-Sep-27 00:00:00.0000, -2.823184890648217E+08, -1.858462554963621E+08, -3.865226600102186E+05,
2460952.500000000, A.D. 2025-Oct-04 00:00:00.0000, -2.744891167790906E+08, -1.947299218744527E+08, -3.919263028466403E+05,
2460959.500000000, A.D. 2025-Oct-11 00:00:00.0000, -2.663102097133609E+08, -2.033656265700600E+08, -3.968311906232685E+05,
2460966.500000000, A.D. 2025-Oct-18 00:00:00.0000, -2.577877107342874E+08, -2.117389562619428E+08, -4.012244114281386E+05,
2460973.500000000, A.D. 2025-Oct-25 00:00:00.0000, -2.489281657998773E+08, -2.198354509749025E+08, -4.050933509188741E+05,
2460980.500000000, A.D. 2025-Nov-01 00:00:00.0000, -2.397387464227538E+08, -2.276406262373068E+08, -4.084257267520428E+05,
2460987.500000000, A.D. 2025-Nov-08 00:00:00.0000, -2.302272719593955E+08, -2.351399977139211E+08, -4.112096379350871E+05,
2460994.500000000, A.D. 2025-Nov-15 00:00:00.0000, -2.204022314034223E+08, -2.423191084948468E+08, -4.134336476823539E+05,
2461001.500000000, A.D. 2025-Nov-22 00:00:00.0000, -2.102728040862318E+08, -2.491635589358627E+08, -4.150869188837558E+05,
2461008.500000000, A.D. 2025-Nov-29 00:00:00.0000, -1.998488792229075E+08, -2.556590380179823E+08, -4.161592952040732E+05,
2461015.500000000, A.D. 2025-Dec-06 00:00:00.0000, -1.891410763397572E+08, -2.617913564464540E+08, -4.166411295299530E+05,
2461022.500000000, A.D. 2025-Dec-13 00:00:00.0000, -1.781607658790647E+08, -2.675464849252650E+08, -4.165231745472103E+05,
2461029.500000000, A.D. 2025-Dec-20 00:00:00.0000, -1.669200861888674E+08, -2.729105966352264E+08, -4.157967721831948E+05,
2461036.500000000, A.D. 2025-Dec-27 00:00:00.0000, -1.554319576486250E+08, -2.778701113606525E+08, -4.144540320918560E+05,
2461043.500000000, A.D. 2026-Jan-03 00:00:00.0000, -1.437100950506813E+08, -2.824117418963566E+08, -4.124879163500965E+05,
2461050.500000000, A.D. 2026-Jan-10 00:00:00.0000, -1.317690177760689E+08, -2.865225433977458E+08, -4.098922962016016E+05,
2461057.500000000, A.D. 2026-Jan-17 00:00:00.0000, -1.196240571633762E+08, -2.901899657064224E+08, -4.066620094576180E+05,
2461064.500000000, A.D. 2026-Jan-24 00:00:00.0000, -1.072913606044270E+08, -2.934019085246528E+08, -4.027929234229922E+05,
2461071.500000000, A.D. 2026-Jan-31 00:00:00.0000, -9.478789194039556E+07, -2.961467792963527E+08, -3.982820053334981E+05,
2461078.500000000, A.D. 2026-Feb-07 00:00:00.0000, -8.213142768531813E+07, -2.984135536513075E+08, -3.931274095359892E+05,
2461085.500000000, A.D. 2026-Feb-14 00:00:00.0000, -6.934054840897313E+07, -3.001918381720169E+08, -3.873286048167348E+05,
2461092.500000000, A.D. 2026-Feb-21 00:00:00.0000, -5.643462448027235E+07, -3.014719345922362E+08, -3.808865293523371E+05,
2461099.500000000, A.D. 2026-Feb-28 00:00:00.0000, -4.343379685684447E+07, -3.022449038979599E+08, -3.738035786774755E+05,
2461106.500000000, A.D. 2026-Mar-07 00:00:00.0000, -3.035895459981366E+07, -3.025026318395599E+08, -3.660833966128528E+05,
2461113.500000000, A.D. 2026-Mar-14 00:00:00.0000, -1.723170598715780E+07, -3.022378976841361E+08, -3.577309139601439E+05,
2461120.500000000, A.D. 2026-Mar-21 00:00:00.0000, -4.074341133732706E+06, -3.014444427466479E+08, -3.487525608423054E+05,
2461127.500000000, A.D. 2026-Mar-28 00:00:00.0000, 9.090212128839958E+06, -3.001170370441930E+08, -3.391563831090778E+05,
2461134.500000000, A.D. 2026-Apr-04 00:00:00.0000, 2.223843870279802E+07, -2.982515443507231E+08, -3.289520850560069E+05,
2461141.500000000, A.D. 2026-Apr-11 00:00:00.0000, 3.534629339959078E+07, -2.958449852694600E+08, -3.181510516439229E+05,
2461148.500000000, A.D. 2026-Apr-18 00:00:00.0000, 4.838926503397071E+07, -2.928955975392703E+08, -3.067663641266525E+05,
2461155.500000000, A.D. 2026-Apr-25 00:00:00.0000, 6.134244742307582E+07, -2.894028927305207E+08, -2.948128113560975E+05,
2461162.500000000, A.D. 2026-May-02 00:00:00.0000, 7.418061716053468E+07, -2.853677085061231E+08, -2.823069016430080E+05,
2461169.500000000, A.D. 2026-May-09 00:00:00.0000, 8.687831801856366E+07, -2.807922556548850E+08, -2.692668911474198E+05,
2461176.500000000, A.D. 2026-May-16 00:00:00.0000, 9.940995196324486E+07, -2.756801589084864E+08, -2.557128506835252E+05,
2461183.500000000, A.D. 2026-May-23 00:00:00.0000, 1.117498763176054E+08, -2.700364896907052E+08, -2.416666908629090E+05,
2461190.500000000, A.D. 2026-May-30 00:00:00.0000, 1.238725043533860E+08, -2.638677896881881E+08, -2.271519282375574E+05,
2461197.500000000, A.D. 2026-Jun-06 00:00:00.0000, 1.357524082342218E+08, -2.571820877820323E+08, -2.121934310635626E+05,
2461204.500000000, A.D. 2026-Jun-13 00:00:00.0000, 1.473644271057245E+08, -2.499889094898605E+08, -1.968174650910199E+05,
2461211.500000000, A.D. 2026-Jun-20 00:00:00.0000, 1.586837788578879E+08, -2.422992754476676E+08, -1.810517544075698E+05,
2461218.500000000, A.D. 2026-Jun-27 00:00:00.0000, 1.696861727951683E+08, -2.341256888464864E+08, -1.649254295195490E+05,
2461225.500000000, A.D. 2026-Jul-04 00:00:00.0000, 1.803479220730427E+08, -2.254821123078514E+08, -1.484689265152365E+05,
2461232.500000000, A.D. 2026-Jul-11 00:00:00.0000, 1.906460549601270E+08, -2.163839341883906E+08, -1.317138721238524E+05,
2461239.500000000, A.D. 2026-Jul-18 00:00:00.0000, 2.005584237920989E+08, -2.068479243075343E+08, -1.146929619268775E+05,
2461246.500000000, A.D. 2026-Jul-25 00:00:00.0000, 2.100638104060112E+08, -1.968921792833009E+08, -9.743983487831056E+04,
2461253.500000000, A.D. 2026-Aug-01 00:00:00.0000, 2.191420268810545E+08, -1.865360578789307E+08, -7.998895440439880E+04,
2461260.500000000, A.D. 2026-Aug-08 00:00:00.0000, 2.277740106222038E+08, -1.758001069122900E+08, -6.237552108633518E+04,
2461267.500000000, A.D. 2026-Aug-15 00:00:00.0000, 2.359419130994825E+08, -1.647059779544900E+08, -4.463541931167245E+04,
2461274.500000000, A.D. 2026-Aug-22 00:00:00.0000, 2.436291804747217E+08, -1.532763344275958E+08, -2.680502832391113E+04,
2461281.500000000, A.D. 2026-Aug-29 00:00:00.0000, 2.508206229296008E+08, -1.415347514323415E+08, -8.920800985760987E+03,
$$EOE